{
  "type": "FeatureCollection",
  "features": [
    {
      "type": "Feature",
      "properties": {
        "norad_id": 41581,
        "name": "INTELSAT 31 (IS-31)",
        "group": "intelsat",
        "lat": -0.0173082677113571,
        "lon": 152.65335921557497,
        "alt_km": 35783.20678546098,
        "timestamp": "2025-12-05T11:32:55.694312+00:00",
        "meta_object_name": "INTELSAT 31 (IS-31)",
        "meta_object_id": "2016-035A",
        "meta_epoch": "2025-12-04T13:16:29.706240",
        "meta_mean_motion": 1.00264599,
        "meta_eccentricity": 0.0002247,
        "meta_inclination": 0.0181,
        "meta_ra_of_asc_node": 271.9889,
        "meta_arg_of_pericenter": 299.0275,
        "meta_mean_anomaly": 326.6767,
        "meta_ephemeris_type": 0,
        "meta_classification_type": "U",
        "meta_norad_cat_id": 41581,
        "meta_element_set_no": 999,
        "meta_rev_at_epoch": 3473,
        "meta_bstar": 0,
        "meta_mean_motion_dot": -1.35e-06,
        "meta_mean_motion_ddot": 0,
        "tle_line1": "1 41581U 16035A   25338.55312160 -.00000135  00000+0  00000+0 0  9996",
        "tle_line2": "2 41581   0.0181 271.9889 0002247 299.0275 326.6767  1.00264599 34734"
      },
      "geometry": {
        "type": "Point",
        "coordinates": [
          152.65335921557497,
          -0.0173082677113571
        ]
      }
    },
    {
      "type": "Feature",
      "properties": {
        "norad_id": 41747,
        "name": "INTELSAT 36 (IS-36)",
        "group": "intelsat",
        "lat": -0.019735605502086237,
        "lon": -43.752586174556725,
        "alt_km": 35780.1354840403,
        "timestamp": "2025-12-05T11:32:55.694324+00:00",
        "meta_object_name": "INTELSAT 36 (IS-36)",
        "meta_object_id": "2016-053A",
        "meta_epoch": "2025-12-04T12:20:24.107424",
        "meta_mean_motion": 1.00269432,
        "meta_eccentricity": 0.0001565,
        "meta_inclination": 0.0147,
        "meta_ra_of_asc_node": 2.5233,
        "meta_arg_of_pericenter": 312.9415,
        "meta_mean_anomaly": 11.722,
        "meta_ephemeris_type": 0,
        "meta_classification_type": "U",
        "meta_norad_cat_id": 41747,
        "meta_element_set_no": 999,
        "meta_rev_at_epoch": 3399,
        "meta_bstar": 0,
        "meta_mean_motion_dot": -9e-08,
        "meta_mean_motion_ddot": 0,
        "tle_line1": "1 41747U 16053A   25338.51416791 -.00000009  00000+0  00000+0 0  9991",
        "tle_line2": "2 41747   0.0147   2.5233 0001565 312.9415  11.7220  1.00269432 33998"
      },
      "geometry": {
        "type": "Point",
        "coordinates": [
          -43.752586174556725,
          -0.019735605502086237
        ]
      }
    },
    {
      "type": "Feature",
      "properties": {
        "norad_id": 41945,
        "name": "INTELSAT 32E (IS-32E)",
        "group": "intelsat",
        "lat": -0.0001789552495688094,
        "lon": -155.43596688978135,
        "alt_km": 35787.83687741588,
        "timestamp": "2025-12-05T11:32:55.694335+00:00",
        "meta_object_name": "INTELSAT 32E (IS-32E)",
        "meta_object_id": "2017-007B",
        "meta_epoch": "2025-12-04T11:48:34.656192",
        "meta_mean_motion": 1.00269077,
        "meta_eccentricity": 3.1e-05,
        "meta_inclination": 0.0338,
        "meta_ra_of_asc_node": 74.3818,
        "meta_arg_of_pericenter": 263.5878,
        "meta_mean_anomaly": 229.5611,
        "meta_ephemeris_type": 0,
        "meta_classification_type": "U",
        "meta_norad_cat_id": 41945,
        "meta_element_set_no": 999,
        "meta_rev_at_epoch": 3227,
        "meta_bstar": 0,
        "meta_mean_motion_dot": -2.54e-06,
        "meta_mean_motion_ddot": 0,
        "tle_line1": "1 41945U 17007B   25338.49206778 -.00000254  00000+0  00000+0 0  9992",
        "tle_line2": "2 41945   0.0338  74.3818 0000310 263.5878 229.5611  1.00269077 32275"
      },
      "geometry": {
        "type": "Point",
        "coordinates": [
          -155.43596688978135,
          -0.0001789552495688094
        ]
      }
    },
    {
      "type": "Feature",
      "properties": {
        "norad_id": 42818,
        "name": "INTELSAT 35E (IS-35E)",
        "group": "intelsat",
        "lat": -0.010692117893712716,
        "lon": -146.74864858008377,
        "alt_km": 35779.160773203104,
        "timestamp": "2025-12-05T11:32:55.694347+00:00",
        "meta_object_name": "INTELSAT 35E (IS-35E)",
        "meta_object_id": "2017-041A",
        "meta_epoch": "2025-12-04T10:08:14.299008",
        "meta_mean_motion": 1.00270574,
        "meta_eccentricity": 0.0002422,
        "meta_inclination": 0.0037,
        "meta_ra_of_asc_node": 34.2287,
        "meta_arg_of_pericenter": 223.3147,
        "meta_mean_anomaly": 293.533,
        "meta_ephemeris_type": 0,
        "meta_classification_type": "U",
        "meta_norad_cat_id": 42818,
        "meta_element_set_no": 999,
        "meta_rev_at_epoch": 3086,
        "meta_bstar": 0,
        "meta_mean_motion_dot": -2.23e-06,
        "meta_mean_motion_ddot": 0,
        "tle_line1": "1 42818U 17041A   25338.42238772 -.00000223  00000+0  00000+0 0  9998",
        "tle_line2": "2 42818   0.0037  34.2287 0002422 223.3147 293.5330  1.00270574 30861"
      },
      "geometry": {
        "type": "Point",
        "coordinates": [
          -146.74864858008377,
          -0.010692117893712716
        ]
      }
    },
    {
      "type": "Feature",
      "properties": {
        "norad_id": 42950,
        "name": "INTELSAT 37E (IS-37E)",
        "group": "intelsat",
        "lat": -0.04269661384896441,
        "lon": -130.25552650281773,
        "alt_km": 35772.49818573765,
        "timestamp": "2025-12-05T11:32:55.694358+00:00",
        "meta_object_name": "INTELSAT 37E (IS-37E)",
        "meta_object_id": "2017-059A",
        "meta_epoch": "2025-12-04T10:34:38.634816",
        "meta_mean_motion": 1.0027072,
        "meta_eccentricity": 0.0003466,
        "meta_inclination": 0.0176,
        "meta_ra_of_asc_node": 324.1366,
        "meta_arg_of_pericenter": 284.1963,
        "meta_mean_anomaly": 325.8485,
        "meta_ephemeris_type": 0,
        "meta_classification_type": "U",
        "meta_norad_cat_id": 42950,
        "meta_element_set_no": 999,
        "meta_rev_at_epoch": 3011,
        "meta_bstar": 0,
        "meta_mean_motion_dot": -1.26e-06,
        "meta_mean_motion_ddot": 0,
        "tle_line1": "1 42950U 17059A   25338.44072494 -.00000126  00000+0  00000+0 0  9995",
        "tle_line2": "2 42950   0.0176 324.1366 0003466 284.1963 325.8485  1.00270720 30112"
      },
      "geometry": {
        "type": "Point",
        "coordinates": [
          -130.25552650281773,
          -0.04269661384896441
        ]
      }
    },
    {
      "type": "Feature",
      "properties": {
        "norad_id": 43632,
        "name": "AZERSPACE 2 (IS-38)",
        "group": "intelsat",
        "lat": -0.031020835451439105,
        "lon": -67.11782097972177,
        "alt_km": 35779.744516033745,
        "timestamp": "2025-12-05T11:32:55.694371+00:00",
        "meta_object_name": "AZERSPACE 2 (IS-38)",
        "meta_object_id": "2018-074A",
        "meta_epoch": "2025-12-04T10:30:49.635072",
        "meta_mean_motion": 1.00272098,
        "meta_eccentricity": 0.0001727,
        "meta_inclination": 0.0173,
        "meta_ra_of_asc_node": 347.5923,
        "meta_arg_of_pericenter": 272.1279,
        "meta_mean_anomaly": 16.6122,
        "meta_ephemeris_type": 0,
        "meta_classification_type": "U",
        "meta_norad_cat_id": 43632,
        "meta_element_set_no": 999,
        "meta_rev_at_epoch": 2649,
        "meta_bstar": 0,
        "meta_mean_motion_dot": 1.51e-06,
        "meta_mean_motion_ddot": 0,
        "tle_line1": "1 43632U 18074A   25338.43807448  .00000151  00000+0  00000+0 0  9992",
        "tle_line2": "2 43632   0.0173 347.5923 0001727 272.1279  16.6122  1.00272098 26499"
      },
      "geometry": {
        "type": "Point",
        "coordinates": [
          -67.11782097972177,
          -0.031020835451439105
        ]
      }
    },
    {
      "type": "Feature",
      "properties": {
        "norad_id": 43633,
        "name": "HORIZONS-3E",
        "group": "intelsat",
        "lat": 0.013855198422330938,
        "lon": 56.77999413954394,
        "alt_km": 35790.061136117765,
        "timestamp": "2025-12-05T11:32:55.694383+00:00",
        "meta_object_name": "HORIZONS-3E",
        "meta_object_id": "2018-074B",
        "meta_epoch": "2025-12-04T12:50:38.628384",
        "meta_mean_motion": 1.00268381,
        "meta_eccentricity": 0.0001198,
        "meta_inclination": 0.036,
        "meta_ra_of_asc_node": 200.4752,
        "meta_arg_of_pericenter": 89.4189,
        "meta_mean_anomaly": 145.3993,
        "meta_ephemeris_type": 0,
        "meta_classification_type": "U",
        "meta_norad_cat_id": 43633,
        "meta_element_set_no": 999,
        "meta_rev_at_epoch": 2638,
        "meta_bstar": 0,
        "meta_mean_motion_dot": -1.6e-07,
        "meta_mean_motion_ddot": 0,
        "tle_line1": "1 43633U 18074B   25338.53516931 -.00000016  00000+0  00000+0 0  9999",
        "tle_line2": "2 43633   0.0360 200.4752 0001198  89.4189 145.3993  1.00268381 26380"
      },
      "geometry": {
        "type": "Point",
        "coordinates": [
          56.77999413954394,
          0.013855198422330938
        ]
      }
    }
  ]
}